[{"CCSDS_OMM_VERS":"2.0","COMMENT":"GENERATED VIA SPACE-TRACK.ORG API","CREATION_DATE":"2023-06-10T21:12:52","ORIGINATOR":"18 SPCS","OBJECT_NAME":"KSF3-C","OBJECT_ID":"2023-001K","CENTER_NAME":"EARTH","REF_FRAME":"TEME","TIME_SYSTEM":"UTC","MEAN_ELEMENT_THEORY":"SGP4","EPOCH":"2023-06-10T12:14:31.425216","MEAN_MOTION":"15.16729839","ECCENTRICITY":"0.00109610","INCLINATION":"97.4771","RA_OF_ASC_NODE":"221.1492","ARG_OF_PERICENTER":"46.3859","MEAN_ANOMALY":"313.8282","EPHEMERIS_TYPE":"0","CLASSIFICATION_TYPE":"U","NORAD_CAT_ID":"55018","ELEMENT_SET_NO":"999","REV_AT_EPOCH":"2405","BSTAR":"0.00060415000000","MEAN_MOTION_DOT":"0.00011807","MEAN_MOTION_DDOT":"0.0000000000000","SEMIMAJOR_AXIS":"6893.869","PERIOD":"94.941","APOAPSIS":"523.290","PERIAPSIS":"508.178","OBJECT_TYPE":"PAYLOAD","RCS_SIZE":"MEDIUM","COUNTRY_CODE":"LUXE","LAUNCH_DATE":"2023-01-03","SITE":"AFETR","DECAY_DATE":null,"FILE":"3929709","GP_ID":"233624413","TLE_LINE0":"0 KSF3-C","TLE_LINE1":"1 55018U 23001K   23161.51008594  .00011807  00000-0  60415-3 0  9996","TLE_LINE2":"2 55018  97.4771 221.1492 0010961  46.3859 313.8282 15.16729839 24058"},{"CCSDS_OMM_VERS":"2.0","COMMENT":"GENERATED VIA SPACE-TRACK.ORG API","CREATION_DATE":"2023-06-10T22:26:12","ORIGINATOR":"18 SPCS","OBJECT_NAME":"KSF3-C","OBJECT_ID":"2023-001K","CENTER_NAME":"EARTH","REF_FRAME":"TEME","TIME_SYSTEM":"UTC","MEAN_ELEMENT_THEORY":"SGP4","EPOCH":"2023-06-10T16:59:31.634592","MEAN_MOTION":"15.16735642","ECCENTRICITY":"0.00109390","INCLINATION":"97.4771","RA_OF_ASC_NODE":"221.3444","ARG_OF_PERICENTER":"45.8274","MEAN_ANOMALY":"314.3856","EPHEMERIS_TYPE":"0","CLASSIFICATION_TYPE":"U","NORAD_CAT_ID":"55018","ELEMENT_SET_NO":"999","REV_AT_EPOCH":"2408","BSTAR":"0.00062354000000","MEAN_MOTION_DOT":"0.00012190","MEAN_MOTION_DDOT":"0.0000000000000","SEMIMAJOR_AXIS":"6893.851","PERIOD":"94.941","APOAPSIS":"523.258","PERIAPSIS":"508.175","OBJECT_TYPE":"PAYLOAD","RCS_SIZE":"MEDIUM","COUNTRY_CODE":"LUXE","LAUNCH_DATE":"2023-01-03","SITE":"AFETR","DECAY_DATE":null,"FILE":"3929762","GP_ID":"233626032","TLE_LINE0":"0 KSF3-C","TLE_LINE1":"1 55018U 23001K   23161.70800503  .00012190  00000-0  62354-3 0  9997","TLE_LINE2":"2 55018  97.4771 221.3444 0010939  45.8274 314.3856 15.16735642 24082"},{"CCSDS_OMM_VERS":"2.0","COMMENT":"GENERATED VIA SPACE-TRACK.ORG API","CREATION_DATE":"2023-06-11T02:49:59","ORIGINATOR":"18 SPCS","OBJECT_NAME":"KSF3-C","OBJECT_ID":"2023-001K","CENTER_NAME":"EARTH","REF_FRAME":"TEME","TIME_SYSTEM":"UTC","MEAN_ELEMENT_THEORY":"SGP4","EPOCH":"2023-06-10T21:44:31.800768","MEAN_MOTION":"15.16740446","ECCENTRICITY":"0.00109240","INCLINATION":"97.4772","RA_OF_ASC_NODE":"221.5396","ARG_OF_PERICENTER":"45.2300","MEAN_ANOMALY":"314.9820","EPHEMERIS_TYPE":"0","CLASSIFICATION_TYPE":"U","NORAD_CAT_ID":"55018","ELEMENT_SET_NO":"999","REV_AT_EPOCH":"2411","BSTAR":"0.00063312000000","MEAN_MOTION_DOT":"0.00012381","MEAN_MOTION_DDOT":"0.0000000000000","SEMIMAJOR_AXIS":"6893.837","PERIOD":"94.940","APOAPSIS":"523.233","PERIAPSIS":"508.171","OBJECT_TYPE":"PAYLOAD","RCS_SIZE":"MEDIUM","COUNTRY_CODE":"LUXE","LAUNCH_DATE":"2023-01-03","SITE":"AFETR","DECAY_DATE":null,"FILE":"3929969","GP_ID":"233656738","TLE_LINE0":"0 KSF3-C","TLE_LINE1":"1 55018U 23001K   23161.90592362  .00012381  00000-0  63312-3 0  9997","TLE_LINE2":"2 55018  97.4772 221.5396 0010924  45.2300 314.9820 15.16740446 24118"},{"CCSDS_OMM_VERS":"2.0","COMMENT":"GENERATED VIA SPACE-TRACK.ORG API","CREATION_DATE":"2023-06-11T06:26:12","ORIGINATOR":"18 SPCS","OBJECT_NAME":"KSF3-C","OBJECT_ID":"2023-001K","CENTER_NAME":"EARTH","REF_FRAME":"TEME","TIME_SYSTEM":"UTC","MEAN_ELEMENT_THEORY":"SGP4","EPOCH":"2023-06-11T02:29:31.922880","MEAN_MOTION":"15.16745638","ECCENTRICITY":"0.00109440","INCLINATION":"97.4772","RA_OF_ASC_NODE":"221.7348","ARG_OF_PERICENTER":"44.6904","MEAN_ANOMALY":"315.5209","EPHEMERIS_TYPE":"0","CLASSIFICATION_TYPE":"U","NORAD_CAT_ID":"55018","ELEMENT_SET_NO":"999","REV_AT_EPOCH":"2414","BSTAR":"0.00063833000000","MEAN_MOTION_DOT":"0.00012485","MEAN_MOTION_DDOT":"0.0000000000000","SEMIMAJOR_AXIS":"6893.821","PERIOD":"94.940","APOAPSIS":"523.231","PERIAPSIS":"508.141","OBJECT_TYPE":"PAYLOAD","RCS_SIZE":"MEDIUM","COUNTRY_CODE":"LUXE","LAUNCH_DATE":"2023-01-03","SITE":"AFETR","DECAY_DATE":null,"FILE":"3930036","GP_ID":"233659775","TLE_LINE0":"0 KSF3-C","TLE_LINE1":"1 55018U 23001K   23162.10384170  .00012485  00000-0  63833-3 0  9999","TLE_LINE2":"2 55018  97.4772 221.7348 0010944  44.6904 315.5209 15.16745638 24141"},{"CCSDS_OMM_VERS":"2.0","COMMENT":"GENERATED VIA SPACE-TRACK.ORG API","CREATION_DATE":"2023-06-11T14:36:18","ORIGINATOR":"18 SPCS","OBJECT_NAME":"KSF3-C","OBJECT_ID":"2023-001K","CENTER_NAME":"EARTH","REF_FRAME":"TEME","TIME_SYSTEM":"UTC","MEAN_ELEMENT_THEORY":"SGP4","EPOCH":"2023-06-11T10:24:31.985856","MEAN_MOTION":"15.16753463","ECCENTRICITY":"0.00109330","INCLINATION":"97.4773","RA_OF_ASC_NODE":"222.0602","ARG_OF_PERICENTER":"43.6334","MEAN_ANOMALY":"316.5762","EPHEMERIS_TYPE":"0","CLASSIFICATION_TYPE":"U","NORAD_CAT_ID":"55018","ELEMENT_SET_NO":"999","REV_AT_EPOCH":"2419","BSTAR":"0.00064843000000","MEAN_MOTION_DOT":"0.00012687","MEAN_MOTION_DDOT":"0.0000000000000","SEMIMAJOR_AXIS":"6893.797","PERIOD":"94.940","APOAPSIS":"523.199","PERIAPSIS":"508.125","OBJECT_TYPE":"PAYLOAD","RCS_SIZE":"MEDIUM","COUNTRY_CODE":"LUXE","LAUNCH_DATE":"2023-01-03","SITE":"AFETR","DECAY_DATE":null,"FILE":"3930341","GP_ID":"233667358","TLE_LINE0":"0 KSF3-C","TLE_LINE1":"1 55018U 23001K   23162.43370354  .00012687  00000-0  64843-3 0  9990","TLE_LINE2":"2 55018  97.4773 222.0602 0010933  43.6334 316.5762 15.16753463 24198"},{"CCSDS_OMM_VERS":"2.0","COMMENT":"GENERATED VIA SPACE-TRACK.ORG API","CREATION_DATE":"2023-06-11T18:29:30","ORIGINATOR":"18 SPCS","OBJECT_NAME":"KSF3-C","OBJECT_ID":"2023-001K","CENTER_NAME":"EARTH","REF_FRAME":"TEME","TIME_SYSTEM":"UTC","MEAN_ELEMENT_THEORY":"SGP4","EPOCH":"2023-06-11T11:59:31.988256","MEAN_MOTION":"15.16754952","ECCENTRICITY":"0.00109230","INCLINATION":"97.4773","RA_OF_ASC_NODE":"222.1253","ARG_OF_PERICENTER":"43.4568","MEAN_ANOMALY":"316.7524","EPHEMERIS_TYPE":"0","CLASSIFICATION_TYPE":"U","NORAD_CAT_ID":"55018","ELEMENT_SET_NO":"999","REV_AT_EPOCH":"2420","BSTAR":"0.00064558000000","MEAN_MOTION_DOT":"0.00012631","MEAN_MOTION_DDOT":"0.0000000000000","SEMIMAJOR_AXIS":"6893.793","PERIOD":"94.940","APOAPSIS":"523.188","PERIAPSIS":"508.128","OBJECT_TYPE":"PAYLOAD","RCS_SIZE":"MEDIUM","COUNTRY_CODE":"LUXE","LAUNCH_DATE":"2023-01-03","SITE":"AFETR","DECAY_DATE":null,"FILE":"3930529","GP_ID":"233697700","TLE_LINE0":"0 KSF3-C","TLE_LINE1":"1 55018U 23001K   23162.49967579  .00012631  00000-0  64558-3 0  9999","TLE_LINE2":"2 55018  97.4773 222.1253 0010923  43.4568 316.7524 15.16754952 24201"},{"CCSDS_OMM_VERS":"2.0","COMMENT":"GENERATED VIA SPACE-TRACK.ORG API","CREATION_DATE":"2023-06-11T22:26:11","ORIGINATOR":"18 SPCS","OBJECT_NAME":"KSF3-C","OBJECT_ID":"2023-001K","CENTER_NAME":"EARTH","REF_FRAME":"TEME","TIME_SYSTEM":"UTC","MEAN_ELEMENT_THEORY":"SGP4","EPOCH":"2023-06-11T15:09:31.961088","MEAN_MOTION":"15.16758402","ECCENTRICITY":"0.00109110","INCLINATION":"97.4773","RA_OF_ASC_NODE":"222.2554","ARG_OF_PERICENTER":"43.0328","MEAN_ANOMALY":"317.1756","EPHEMERIS_TYPE":"0","CLASSIFICATION_TYPE":"U","NORAD_CAT_ID":"55018","ELEMENT_SET_NO":"999","REV_AT_EPOCH":"2422","BSTAR":"0.00064268000000","MEAN_MOTION_DOT":"0.00012575","MEAN_MOTION_DDOT":"0.0000000000000","SEMIMAJOR_AXIS":"6893.782","PERIOD":"94.939","APOAPSIS":"523.169","PERIAPSIS":"508.126","OBJECT_TYPE":"PAYLOAD","RCS_SIZE":"MEDIUM","COUNTRY_CODE":"LUXE","LAUNCH_DATE":"2023-01-03","SITE":"AFETR","DECAY_DATE":null,"FILE":"3930579","GP_ID":"233700273","TLE_LINE0":"0 KSF3-C","TLE_LINE1":"1 55018U 23001K   23162.63161992  .00012575  00000-0  64268-3 0  9995","TLE_LINE2":"2 55018  97.4773 222.2554 0010911  43.0328 317.1756 15.16758402 24221"},{"CCSDS_OMM_VERS":"2.0","COMMENT":"GENERATED VIA SPACE-TRACK.ORG API","CREATION_DATE":"2023-06-12T02:33:01","ORIGINATOR":"18 SPCS","OBJECT_NAME":"KSF3-C","OBJECT_ID":"2023-001K","CENTER_NAME":"EARTH","REF_FRAME":"TEME","TIME_SYSTEM":"UTC","MEAN_ELEMENT_THEORY":"SGP4","EPOCH":"2023-06-11T21:29:31.835040","MEAN_MOTION":"15.16764412","ECCENTRICITY":"0.00108930","INCLINATION":"97.4774","RA_OF_ASC_NODE":"222.5157","ARG_OF_PERICENTER":"42.3104","MEAN_ANOMALY":"317.8967","EPHEMERIS_TYPE":"0","CLASSIFICATION_TYPE":"U","NORAD_CAT_ID":"55018","ELEMENT_SET_NO":"999","REV_AT_EPOCH":"2426","BSTAR":"0.00063529000000","MEAN_MOTION_DOT":"0.00012432","MEAN_MOTION_DDOT":"0.0000000000000","SEMIMAJOR_AXIS":"6893.764","PERIOD":"94.939","APOAPSIS":"523.139","PERIAPSIS":"508.120","OBJECT_TYPE":"PAYLOAD","RCS_SIZE":"MEDIUM","COUNTRY_CODE":"LUXE","LAUNCH_DATE":"2023-01-03","SITE":"AFETR","DECAY_DATE":null,"FILE":"3930737","GP_ID":"233730104","TLE_LINE0":"0 KSF3-C","TLE_LINE1":"1 55018U 23001K   23162.89550735  .00012432  00000-0  63529-3 0  9991","TLE_LINE2":"2 55018  97.4774 222.5157 0010893  42.3104 317.8967 15.16764412 24260"}]